CCSDS_OMM_VERS,COMMENT,CREATION_DATE,ORIGINATOR,OBJECT_NAME,OBJECT_ID,CENTER_NAME,REF_FRAME,TIME_SYSTEM,MEAN_ELEMENT_THEORY,EPOCH,MEAN_MOTION,ECCENTRICITY,INCLINATION,RA_OF_ASC_NODE,ARG_OF_PERICENTER,MEAN_ANOMALY,EPHEMERIS_TYPE,CLASSIFICATION_TYPE,NORAD_CAT_ID,ELEMENT_SET_NO,REV_AT_EPOCH,BSTAR,MEAN_MOTION_DOT,MEAN_MOTION_DDOT,SEMIMAJOR_AXIS,PERIOD,APOAPSIS,PERIAPSIS,OBJECT_TYPE,RCS_SIZE,COUNTRY_CODE,LAUNCH_DATE,SITE,DECAY_DATE,FILE,GP_ID,TLE_LINE0,TLE_LINE1,TLE_LINE2
2,GENERATED VIA SPACE-TRACK.ORG API,2019-10-31T20:40:17,18 SPCS,GALILEO-FM2,2011-060B,EARTH,TEME,UTC,SGP4,2019-10-31T13:35:59.345376,1.70475529,0.0003188,56.4777,47.6176,290.3303,96.5723,0,U,37847,999,4998,0.0,-8.1e-07,0,29600.143,844.696,23231.444,23212.571,PAYLOAD,LARGE,ESA,2011-10-21,FRGUI,,2644726,142324431,0 GALILEO-FM2,1 37847U 11060B   19304.56665909 -.00000081  00000-0  00000+0 0  9999,2 37847  56.4777  47.6176 0003188 290.3303  96.5723  1.70475529 49980
2,GENERATED VIA SPACE-TRACK.ORG API,2019-11-03T06:50:16,18 SPCS,GALILEO-FM2,2011-060B,EARTH,TEME,UTC,SGP4,2019-11-02T20:47:07.249632,1.704756,0.000326,56.4793,47.5541,289.8932,68.2031,0,U,37847,999,5001,0.0,-8.2e-07,0,29600.134,844.695,23231.649,23212.35,PAYLOAD,LARGE,ESA,2011-10-21,FRGUI,,2645943,142446567,0 GALILEO-FM2,1 37847U 11060B   19306.86605613 -.00000082  00000-0  00000+0 0  9991,2 37847  56.4793  47.5541 0003260 289.8932  68.2031  1.70475600 50019
2,GENERATED VIA SPACE-TRACK.ORG API,2019-11-05T14:30:18,18 SPCS,GALILEO-FM2,2011-060B,EARTH,TEME,UTC,SGP4,2019-11-05T08:47:33.409824,1.70475662,0.0003354,56.4809,47.4851,289.6698,162.9211,0,U,37847,999,5006,0.0,-8.2e-07,0,29600.127,844.695,23231.92,23212.064,PAYLOAD,LARGE,ESA,2011-10-21,FRGUI,,2647121,142530111,0 GALILEO-FM2,1 37847U 11060B   19309.36635891 -.00000082  00000-0  00000+0 0  9990,2 37847  56.4809  47.4851 0003354 289.6698 162.9211  1.70475662 50066
2,GENERATED VIA SPACE-TRACK.ORG API,2019-11-07T03:56:03,18 SPCS,GALILEO-FM2,2011-060B,EARTH,TEME,UTC,SGP4,2019-11-06T10:13:02.393760,1.7047568,0.0003393,56.4816,47.456,289.614,93.133,0,U,37847,999,4996,0.0,-8.1e-07,0,29600.125,844.695,23232.033,23211.947,PAYLOAD,LARGE,ESA,2011-10-21,FRGUI,,2647831,142616662,0 GALILEO-FM2,1 37847U 11060B   19310.42572215 -.00000081 +00000-0 +00000-0 0  9999,2 37847 056.4816 047.4560 0003393 289.6140 093.1330 01.70475680049960
2,GENERATED VIA SPACE-TRACK.ORG API,2019-11-07T21:50:15,18 SPCS,GALILEO-FM2,2011-060B,EARTH,TEME,UTC,SGP4,2019-11-07T13:29:48.255648,1.70475693,0.0003431,56.4823,47.4246,289.5868,70.7443,0,U,37847,999,5010,0.0,-7.9e-07,0,29600.124,844.695,23232.144,23211.833,PAYLOAD,LARGE,ESA,2011-10-21,FRGUI,,2648258,142670618,0 GALILEO-FM2,1 37847U 11060B   19311.56236407 -.00000079  00000-0  00000+0 0  9991,2 37847  56.4823  47.4246 0003431 289.5868  70.7443  1.70475693 50106
2,GENERATED VIA SPACE-TRACK.ORG API,2019-11-10T02:43:45,18 SPCS,GALILEO-FM2,2011-060B,EARTH,TEME,UTC,SGP4,2019-11-09T06:47:05.612640,1.7047569,0.000349,56.4834,47.3772,289.5092,46.635,0,U,37847,999,5000,0.0,-7.4e-07,0,29600.124,844.695,23232.319,23211.658,PAYLOAD,LARGE,ESA,2011-10-21,FRGUI,,2649063,142798849,0 GALILEO-FM2,1 37847U 11060B   19313.28270385 -.00000074 +00000-0 +00000-0 0  9991,2 37847 056.4834 047.3772 0003490 289.5092 046.6350 01.70475690050000
2,GENERATED VIA SPACE-TRACK.ORG API,2019-11-10T22:30:17,18 SPCS,GALILEO-FM2,2011-060B,EARTH,TEME,UTC,SGP4,2019-11-10T12:00:46.889280,1.70475673,0.0003539,56.4841,47.3436,289.4206,74.14,0,U,37847,999,5015,0.0,-7.1e-07,0,29600.126,844.695,23232.466,23211.515,PAYLOAD,LARGE,ESA,2011-10-21,FRGUI,,2649488,142814300,0 GALILEO-FM2,1 37847U 11060B   19314.50054270 -.00000071  00000-0  00000+0 0  9996,2 37847  56.4841  47.3436 0003539 289.4206  74.1400  1.70475673 50154
2,GENERATED VIA SPACE-TRACK.ORG API,2019-11-13T04:23:47,18 SPCS,GALILEO-FM2,2011-060B,EARTH,TEME,UTC,SGP4,2019-11-12T20:15:28.809216,1.70475613,0.0003631,56.4859,47.279,289.2767,72.5699,0,U,37847,999,5007,0.0,-6.3e-07,0,29600.133,844.695,23232.746,23211.25,PAYLOAD,LARGE,ESA,2011-10-21,FRGUI,,2650626,142929618,0 GALILEO-FM2,1 37847U 11060B   19316.84408344 -.00000063 +00000-0 +00000-0 0  9992,2 37847 056.4859 047.2790 0003631 289.2767 072.5699 01.70475613050075
2,GENERATED VIA SPACE-TRACK.ORG API,2019-11-13T06:50:17,18 SPCS,GALILEO-FM2,2011-060B,EARTH,TEME,UTC,SGP4,2019-11-12T20:15:28.809216,1.70475613,0.0003631,56.4859,47.279,289.2767,72.5699,0,U,37847,999,5019,0.0,-6.3e-07,0,29600.133,844.695,23232.746,23211.25,PAYLOAD,LARGE,ESA,2011-10-21,FRGUI,,2650741,142937575,0 GALILEO-FM2,1 37847U 11060B   19316.84408344 -.00000063  00000-0  00000+0 0  9991,2 37847  56.4859  47.2790 0003631 289.2767  72.5699  1.70475613 50198
2,GENERATED VIA SPACE-TRACK.ORG API,2019-11-14T06:10:12,18 SPCS,GALILEO-FM2,2011-060B,EARTH,TEME,UTC,SGP4,2019-11-13T12:13:24.219840,1.70475587,0.0003674,56.4862,47.2606,289.2237,120.8868,0,U,37847,999,5008,0.0,-6.1e-07,0,29600.136,844.695,23232.876,23211.126,PAYLOAD,LARGE,ESA,2011-10-21,FRGUI,,2651161,142979767,0 GALILEO-FM2,1 37847U 11060B   19317.50930810 -.00000061 +00000-0 +00000-0 0  9992,2 37847 056.4862 047.2606 0003674 289.2237 120.8868 01.70475587050080
2,GENERATED VIA SPACE-TRACK.ORG API,2019-11-16T07:20:17,18 SPCS,GALILEO-FM2,2011-060B,EARTH,TEME,UTC,SGP4,2019-11-15T04:30:19.719936,1.70475527,0.0003742,56.4873,47.2143,289.2407,70.9554,0,U,37847,999,5023,0.0,-5.8e-07,0,29600.143,844.696,23233.084,23210.931,PAYLOAD,LARGE,ESA,2011-10-21,FRGUI,,2652267,143103975,0 GALILEO-FM2,1 37847U 11060B   19319.18772824 -.00000058  00000-0  00000+0 0  9992,2 37847  56.4873  47.2143 0003742 289.2407  70.9554  1.70475527 50231
2,GENERATED VIA SPACE-TRACK.ORG API,2019-11-17T22:40:14,18 SPCS,GALILEO-FM2,2011-060B,EARTH,TEME,UTC,SGP4,2019-11-17T12:45:07.638624,1.70475448,0.0003842,56.4882,47.1496,289.2359,69.2883,0,U,37847,999,5026,0.0,-5.9e-07,0,29600.152,844.696,23233.389,23210.645,PAYLOAD,LARGE,ESA,2011-10-21,FRGUI,,2653074,143218072,0 GALILEO-FM2,1 37847U 11060B   19321.53133841 -.00000059  00000-0  00000+0 0  9995,2 37847  56.4882  47.1496 0003842 289.2359  69.2883  1.70475448 50269
2,GENERATED VIA SPACE-TRACK.ORG API,2019-11-20T09:20:17,18 SPCS,GALILEO-FM2,2011-060B,EARTH,TEME,UTC,SGP4,2019-11-19T20:59:51.588096,1.70475399,0.0003934,56.4897,47.0848,289.1616,67.6625,0,U,37847,999,5030,0.0,-6.8e-07,0,29600.158,844.696,23233.667,23210.378,PAYLOAD,LARGE,ESA,2011-10-21,FRGUI,,2653937,143314629,0 GALILEO-FM2,1 37847U 11060B   19323.87490264 -.00000068  00000-0  00000+0 0  9999,2 37847  56.4897  47.0848 0003934 289.1616  67.6625  1.70475399 50308
2,GENERATED VIA SPACE-TRACK.ORG API,2019-11-21T06:18:00,18 SPCS,GALILEO-FM2,2011-060B,EARTH,TEME,UTC,SGP4,2019-11-20T15:38:30.067296,1.70475389,0.0003969,56.4902,47.0634,289.1086,184.4766,0,U,37847,999,5020,0.0,-7.2e-07,0,29600.159,844.696,23233.772,23210.275,PAYLOAD,LARGE,ESA,2011-10-21,FRGUI,,2654328,143356276,0 GALILEO-FM2,1 37847U 11060B   19324.65173689 -.00000072 +00000-0 +00000-0 0  9991,2 37847 056.4902 047.0634 0003969 289.1086 184.4766 01.70475389050209
2,GENERATED VIA SPACE-TRACK.ORG API,2019-11-22T15:00:17,18 SPCS,GALILEO-FM2,2011-060B,EARTH,TEME,UTC,SGP4,2019-11-22T12:45:59.791392,1.70475383,0.0004055,56.4914,47.0113,289.1061,258.4045,0,U,37847,999,5035,0.0,-8.1e-07,0,29600.159,844.696,23234.027,23210.022,PAYLOAD,LARGE,ESA,2011-10-21,FRGUI,,2655176,143438694,0 GALILEO-FM2,1 37847U 11060B   19326.53194203 -.00000081  00000-0  00000+0 0  9994,2 37847  56.4914  47.0113 0004055 289.1061 258.4045  1.70475383 50356
2,GENERATED VIA SPACE-TRACK.ORG API,2019-11-23T07:43:43,18 SPCS,GALILEO-FM2,2011-060B,EARTH,TEME,UTC,SGP4,2019-11-22T17:01:25.928832,1.70475385,0.0004062,56.4915,47.0065,289.1049,7.2716,0,U,37847,999,5023,0.0,-8.2e-07,0,29600.159,844.696,23234.048,23210.001,PAYLOAD,LARGE,ESA,2011-10-21,FRGUI,,2655455,143477901,0 GALILEO-FM2,1 37847U 11060B   19326.70932788 -.00000082 +00000-0 +00000-0 0  9993,2 37847 056.4915 047.0065 0004062 289.1049 007.2716 01.70475385050231
2,GENERATED VIA SPACE-TRACK.ORG API,2019-11-25T14:40:16,18 SPCS,GALILEO-FM2,2011-060B,EARTH,TEME,UTC,SGP4,2019-11-25T03:58:52.756032,1.70475425,0.000414,56.4931,46.9386,289.2022,74.8224,0,U,37847,999,5040,0.0,-8.8e-07,0,29600.155,844.696,23234.274,23209.765,PAYLOAD,LARGE,ESA,2011-10-21,FRGUI,,2656717,143606723,0 GALILEO-FM2,1 37847U 11060B   19329.16588838 -.00000088  00000-0  00000+0 0  9994,2 37847  56.4931  46.9386 0004140 289.2022  74.8224  1.70475425 50400
2,GENERATED VIA SPACE-TRACK.ORG API,2019-11-27T03:39:53,18 SPCS,GALILEO-FM2,2011-060B,EARTH,TEME,UTC,SGP4,2019-11-26T14:37:06.270240,1.70475458,0.0004177,56.4941,46.8987,289.2581,240.4992,0,U,37847,999,5030,0.0,-8.9e-07,0,29600.151,844.696,23234.38,23209.652,PAYLOAD,LARGE,ESA,2011-10-21,FRGUI,,2657605,143697362,0 GALILEO-FM2,1 37847U 11060B   19330.60910035 -.00000089 +00000-0 +00000-0 0  9995,2 37847 056.4941 046.8987 0004177 289.2581 240.4992 01.70475458050305
2,GENERATED VIA SPACE-TRACK.ORG API,2019-11-27T14:40:17,18 SPCS,GALILEO-FM2,2011-060B,EARTH,TEME,UTC,SGP4,2019-11-27T12:13:41.250144,1.70475489,0.0004211,56.4947,46.8738,289.3173,73.0395,0,U,37847,999,5044,0.0,-8.9e-07,0,29600.147,844.696,23234.477,23209.548,PAYLOAD,LARGE,ESA,2011-10-21,FRGUI,,2657936,143729113,0 GALILEO-FM2,1 37847U 11060B   19331.50950521 -.00000089  00000-0  00000+0 0  9998,2 37847  56.4947  46.8738 0004211 289.3173  73.0395  1.70475489 50448
2,GENERATED VIA SPACE-TRACK.ORG API,2019-11-30T03:30:48,18 SPCS,GALILEO-FM2,2011-060B,EARTH,TEME,UTC,SGP4,2019-11-29T20:28:25.502016,1.70475564,0.0004293,56.4962,46.809,289.4291,71.2298,0,U,37847,999,5036,0.0,-8.9e-07,0,29600.139,844.695,23234.711,23209.296,PAYLOAD,LARGE,ESA,2011-10-21,FRGUI,,2659290,143889508,0 GALILEO-FM2,1 37847U 11060B   19333.85307294 -.00000089 +00000-0 +00000-0 0  9992,2 37847 056.4962 046.8090 0004293 289.4291 071.2298 01.70475564050365
